LEMUR-1                 
1 40044U 14033AL  26194.36528422  .00000822  00000+0  10006-3 0  9998
2 40044  97.7905 343.5942 0047928 353.9806   6.0828 14.85333807649358
LEMUR-2-GREENBERG       
1 42837U 17042N   26194.47946093  .00009474  00000+0  30775-3 0  9990
2 42837  97.3826  14.9999 0007161 266.6725  93.3697 15.32118737492416
LEMUR-2-ANDIS           
1 42838U 17042P   26194.31617300  .00013773  00000+0  39626-3 0  9991
2 42838  97.3675  15.1146 0007134 265.7451  94.2978 15.35874603492463
LEMUR-2-MONSON          
1 42839U 17042Q   26194.80759331  .00007810  00000+0  28219-3 0  9998
2 42839  97.4086  15.2572 0005239 251.8262 108.2408 15.28729745492232
LEMUR-2-FURIAUS         
1 42840U 17042R   26193.44556340  .00010642  00000+0  35675-3 0  9995
2 42840  97.3775  11.8672 0006239 340.6601  19.4403 15.31072029492076
LEMUR-2-PETERG          
1 42841U 17042S   26194.83746902  .00011482  00000+0  34038-3 0  9990
2 42841  97.3987  19.9327 0003215 225.7351 134.3628 15.34997111492521
LEMUR-2-DEMBITZ         
1 42842U 17042T   26194.44561221  .00010407  00000+0  34897-3 0  9996
2 42842  97.3823  15.9038 0005025 282.7379  77.3301 15.31075730492367
LEMUR-2-ZACHARY         
1 42845U 17042W   26194.50547504  .00031484  00000+0  51241-3 0  9994
2 42845  97.3570  26.7449 0002475 255.1233 104.9746 15.52606320493284
LEMUR-2-AMANDA-SVANTE   
1 48269U 21034B   26194.75691213  .00019470  00000+0  55866-3 0  9998
2 48269  97.5758 273.7724 0004577 146.6143 213.5390 15.35901583285134
LEMUR-2-SPECIAL-K       
1 48273U 21034F   26194.80820394  .00170160  00000+0  11652-2 0  9991
2 48273  97.5644 283.7792 0006213 216.1117 143.9728 15.74229239285867
LEMUR-2-EMBRIONOVIS     
1 56970U 23084AQ  26194.35851156  .00008792  00000+0  23578-3 0  9993
2 56970  97.6315 339.5788 0008139 213.3126 146.7608 15.38198824171709
LEMUR-2-DEVERILL-M-T    
1 57391U 23100F   26194.67252656  .00016198  00000+0  39466-3 0  9997
2 57391  99.4451 241.1062 0004681 303.6745  56.4048 15.41043213165320
LEMUR-2-BASS            
1 58259U 23174D   26194.78994027  .00010596  00000+0  23445-3 0  9995
2 58259  97.3852 279.8888 0007761  82.6204 277.5926 15.43963525149463
LEMUR-2-JK0903EM1407    
1 58336U 23174CJ  26194.76586292  .00016696  00000+0  26895-3 0  9999
2 58336  97.3927 286.0103 0003751  38.6610 321.4910 15.53017919149852
LEMUR-2-MJR092620       
1 58340U 23174CN  26194.83655743  .00011620  00000+0  24131-3 0  9993
2 58340  97.3983 285.3735 0005431  34.6168 325.5433 15.45830894149764
LEMUR-2-NIMBUS2000      
1 58899U 24022A   26194.51537385  .00013841  00000+0  33633-3 0  9995
2 58899  97.4084  44.8635 0008918  34.2151 325.9668 15.41070086136321
LEMUR-2-VALHALLA        
1 58900U 24022B   26194.51955493  .00009838  00000+0  24466-3 0  9997
2 58900  97.4077  44.8395 0009367  29.8669 330.3110 15.40455427136329
LEMUR-2-CAEL            
1 58903U 24022E   26194.83114395  .00010574  00000+0  25130-3 0  9991
2 58903  97.4061  46.1387 0007278  14.4860 345.6595 15.41825836136448
LEMUR-2-JOHNNYTRUONG    
1 59146U 24043BA  26194.42472732  .00027470  00000+0  31009-3 0  9996
2 59146  97.5381 347.7948 0004183  98.9068 261.2663 15.62464736132138
LEMUR-2-TOMATOKECHUP    
1 60471U 24149D   26194.68181252  .00006298  00000+0  17875-3 0  9998
2 60471  97.3803 276.8043 0003248 125.4451 234.7097 15.36562806106235
LEMUR-2-STELLA          
1 60533U 24149BT  26194.75047204  .00005858  00000+0  34165-3 0  9995
2 60533  97.6740 277.3306 0001265 112.4511 247.6853 15.12354035104514
LEMUR-2-MARHISYAM       
1 60536U 24149BW  26194.01272818  .00006657  00000+0  39418-3 0  9992
2 60536  97.6885 277.0636 0002715  73.2664 286.8864 15.11754239104385
LEMUR-2-AHMED-ASRAR     
1 60576U 24149DN  26194.74879220  .00005889  00000+0  33468-3 0  9991
2 60576  97.7010 280.0012 0001052 204.3434 155.7747 15.13287813104584
LEMUR-2-LLOYD           
1 60577U 24149DP  26194.75678787  .00005640  00000+0  35356-3 0  9991
2 60577  97.6752 275.9070 0004833  76.4339 283.7428 15.09735298104405
LEMUR-2-SQUIRRELCOMM    
1 60578U 24149DQ  26194.74320419  .00002787  00000+0  18811-3 0  9993
2 60578  97.6716 275.5747 0004166 335.2598  24.8429 15.07439140104405
LEMUR-2-SIERRINI        
1 60579U 24149DR  26194.76945271  .00006559  00000+0  39108-3 0  9998
2 60579  97.6848 277.4875 0006460  94.0938 266.1030 15.11494484104475
LEMUR-2-WILSON          
1 62694U 25009CP  26194.79654873  .00000692  00000+0  67977-4 0  9990
2 62694  97.7022 272.7948 0002139 332.8734  27.2375 14.95274261 81332
LEMUR-2-STAR-FOX        
1 62696U 25009CR  26194.79520671  .00003505  00000+0  26618-3 0  9992
2 62696  97.6914 276.2131 0002388  48.7282 311.4148 15.02830871 81557
LEMUR-2-ARIANNA         
1 62699U 25009CU  26194.79367471  .00003690  00000+0  28002-3 0  9996
2 62699  97.6854 275.9647 0002672  55.9087 304.2391 15.02832026 81554
LEMUR-2-ALISIA          
1 62706U 25009DB  26194.76635042  .00004605  00000+0  34521-3 0  9994
2 62706  97.6973 276.7599 0004103 132.9962 227.1608 15.03162407104155
