OBJECT_NAME,OBJECT_ID,EPOCH,MEAN_MOTION,ECCENTRICITY,INCLINATION,RA_OF_ASC_NODE,ARG_OF_PERICENTER,MEAN_ANOMALY,EPHEMERIS_TYPE,CLASSIFICATION_TYPE,NORAD_CAT_ID,ELEMENT_SET_NO,REV_AT_EPOCH,BSTAR,MEAN_MOTION_DOT,MEAN_MOTION_DDOT
LEMUR-1,2014-033AL,2026-07-13T08:46:00.556608,14.85333807,.00479283,97.7905,343.5942,353.9806,6.0828,0,U,40044,999,64935,.10005631E-3,.822E-5,0
LEMUR-2-GREENBERG,2017-042N,2026-07-13T11:30:25.424352,15.32118737,.00071612,97.3826,14.9999,266.6725,93.3697,0,U,42837,999,49241,.30775394E-3,.9474E-4,0
LEMUR-2-ANDIS,2017-042P,2026-07-13T07:35:17.347200,15.35874603,.0007134,97.3675,15.1146,265.7451,94.2978,0,U,42838,999,49246,.39625513E-3,.13773E-3,0
LEMUR-2-MONSON,2017-042Q,2026-07-13T19:22:56.061984,15.28729745,.0005239,97.4086,15.2572,251.8262,108.2408,0,U,42839,999,49223,.28219E-3,.781E-4,0
LEMUR-2-FURIAUS,2017-042R,2026-07-12T10:41:36.677760,15.31072029,.00062398,97.3775,11.8672,340.6601,19.4403,0,U,42840,999,49207,.35675373E-3,.10642E-3,0
LEMUR-2-PETERG,2017-042S,2026-07-13T20:05:57.323328,15.34997111,.0003215,97.3987,19.9327,225.7351,134.3628,0,U,42841,999,49252,.34038E-3,.11482E-3,0
LEMUR-2-DEMBITZ,2017-042T,2026-07-13T10:41:40.894944,15.31075730,.00050251,97.3823,15.9038,282.7379,77.3301,0,U,42842,999,49236,.34897446E-3,.10407E-3,0
LEMUR-2-ZACHARY,2017-042W,2026-07-13T12:07:53.043456,15.52606320,.00024753,97.3570,26.7449,255.1233,104.9746,0,U,42845,999,49328,.51240898E-3,.31484E-3,0
LEMUR-2-AMANDA-SVANTE,2021-034B,2026-07-13T18:09:57.208032,15.35901583,.0004577,97.5758,273.7724,146.6143,213.5390,0,U,48269,999,28513,.55866E-3,.1947E-3,0
LEMUR-2-SPECIAL-K,2021-034F,2026-07-13T19:23:48.820416,15.74229239,.0006213,97.5644,283.7792,216.1117,143.9728,0,U,48273,999,28586,.11652E-2,.17016E-2,0
LEMUR-2-EMBRIONOVIS,2023-084AQ,2026-07-13T08:36:15.398784,15.38198824,.00081393,97.6315,339.5788,213.3126,146.7608,0,U,56970,999,17170,.23577819E-3,.8792E-4,0
LEMUR-2-DEVERILL-M-T,2023-100F,2026-07-13T16:08:26.294784,15.41043213,.0004681,99.4451,241.1062,303.6745,56.4048,0,U,57391,999,16532,.39466E-3,.16198E-3,0
LEMUR-2-BASS,2023-174D,2026-07-13T18:57:30.839328,15.43963525,.0007761,97.3852,279.8888,82.6204,277.5926,0,U,58259,999,14946,.23445E-3,.10596E-3,0
LEMUR-2-JK0903EM1407,2023-174CJ,2026-07-13T18:22:50.556288,15.53017919,.0003751,97.3927,286.0103,38.6610,321.4910,0,U,58336,999,14985,.26895E-3,.16696E-3,0
LEMUR-2-MJR092620,2023-174CN,2026-07-13T20:04:38.561952,15.45830894,.0005431,97.3983,285.3735,34.6168,325.5433,0,U,58340,999,14976,.24131E-3,.1162E-3,0
LEMUR-2-NIMBUS2000,2024-022A,2026-07-13T12:22:08.300640,15.41070086,.0008918,97.4084,44.8635,34.2151,325.9668,0,U,58899,999,13632,.33633384E-3,.13841E-3,0
LEMUR-2-VALHALLA,2024-022B,2026-07-13T12:28:09.545952,15.40455427,.00093676,97.4077,44.8395,29.8669,330.3110,0,U,58900,999,13632,.24466141E-3,.9838E-4,0
LEMUR-2-CAEL,2024-022E,2026-07-13T19:56:50.837280,15.41825836,.0007278,97.4061,46.1387,14.4860,345.6595,0,U,58903,999,13644,.2513E-3,.10574E-3,0
LEMUR-2-JOHNNYTRUONG,2024-043BA,2026-07-13T10:11:36.440448,15.62464736,.00041836,97.5381,347.7948,98.9068,261.2663,0,U,59146,999,13213,.31008954E-3,.2747E-3,0
LEMUR-2-TOMATOKECHUP,2024-149D,2026-07-13T16:21:48.601728,15.36562806,.0003248,97.3803,276.8043,125.4451,234.7097,0,U,60471,999,10623,.17875E-3,.6298E-4,0
LEMUR-2-STELLA,2024-149BT,2026-07-13T18:00:40.784256,15.12354035,.0001265,97.6740,277.3306,112.4511,247.6853,0,U,60533,999,10451,.34165E-3,.5858E-4,0
LEMUR-2-MARHISYAM,2024-149BW,2026-07-13T00:18:19.714752,15.11754239,.00027158,97.6885,277.0636,73.2664,286.8864,0,U,60536,999,10438,.39418223E-3,.6657E-4,0
LEMUR-2-AHMED-ASRAR,2024-149DN,2026-07-13T17:58:15.646080,15.13287813,.0001052,97.7010,280.0012,204.3434,155.7747,0,U,60576,999,10458,.33468E-3,.5889E-4,0
LEMUR-2-LLOYD,2024-149DP,2026-07-13T18:09:46.471968,15.09735298,.0004833,97.6752,275.9070,76.4339,283.7428,0,U,60577,999,10440,.35356E-3,.564E-4,0
LEMUR-2-SQUIRRELCOMM,2024-149DQ,2026-07-13T17:50:12.842016,15.07439140,.0004166,97.6716,275.5747,335.2598,24.8429,0,U,60578,999,10440,.18811E-3,.2787E-4,0
LEMUR-2-SIERRINI,2024-149DR,2026-07-13T18:28:00.714144,15.11494484,.000646,97.6848,277.4875,94.0938,266.1030,0,U,60579,999,10447,.39108E-3,.6559E-4,0
LEMUR-2-WILSON,2025-009CP,2026-07-13T19:07:01.810272,14.95274261,.0002139,97.7022,272.7948,332.8734,27.2375,0,U,62694,999,8133,.67977E-4,.692E-5,0
LEMUR-2-STAR-FOX,2025-009CR,2026-07-13T19:05:05.859744,15.02830871,.0002388,97.6914,276.2131,48.7282,311.4148,0,U,62696,999,8155,.26618E-3,.3505E-4,0
LEMUR-2-ARIANNA,2025-009CU,2026-07-13T19:02:53.494944,15.02832026,.0002672,97.6854,275.9647,55.9087,304.2391,0,U,62699,999,8155,.28002E-3,.369E-4,0
LEMUR-2-ALISIA,2025-009DB,2026-07-13T18:23:32.676288,15.03162407,.0004103,97.6973,276.7599,132.9962,227.1608,0,U,62706,999,10415,.34521E-3,.4605E-4,0
